[{"OBJECT_NAME":"TEVEL2-5","OBJECT_ID":"2025-052E","EPOCH":"2026-03-09T23:11:54.246048","MEAN_MOTION":15.30817434,"ECCENTRICITY":0.00047002,"INCLINATION":97.4013,"RA_OF_ASC_NODE":325.3677,"ARG_OF_PERICENTER":95.3936,"MEAN_ANOMALY":264.7842,"EPHEMERIS_TYPE":0,"CLASSIFICATION_TYPE":"U","NORAD_CAT_ID":63214,"ELEMENT_SET_NO":999,"REV_AT_EPOCH":5491,"BSTAR":0.00071764727,"MEAN_MOTION_DOT":0.00021339,"MEAN_MOTION_DDOT":0},{"OBJECT_NAME":"STARLINK-36169","OBJECT_ID":"2025-286E","EPOCH":"2026-03-09T04:30:38.209536","MEAN_MOTION":15.30198841,"ECCENTRICITY":9.387e-5,"INCLINATION":53.1599,"RA_OF_ASC_NODE":0.5231,"ARG_OF_PERICENTER":52.5724,"MEAN_ANOMALY":307.5362,"EPHEMERIS_TYPE":0,"CLASSIFICATION_TYPE":"U","NORAD_CAT_ID":66929,"ELEMENT_SET_NO":999,"REV_AT_EPOCH":1534,"BSTAR":0.0010794097,"MEAN_MOTION_DOT":0.00031745,"MEAN_MOTION_DDOT":0}]
